OBJECT_NAME,OBJECT_ID,EPOCH,MEAN_MOTION,ECCENTRICITY,INCLINATION,RA_OF_ASC_NODE,ARG_OF_PERICENTER,MEAN_ANOMALY,EPHEMERIS_TYPE,CLASSIFICATION_TYPE,NORAD_CAT_ID,ELEMENT_SET_NO,REV_AT_EPOCH,BSTAR,MEAN_MOTION_DOT,MEAN_MOTION_DDOT
ARIRANG-3 (KOMPSAT-3),2012-025B,2026-07-07T11:50:23.769024,14.62224419,.0006606,98.1180,145.6040,58.7079,301.4769,0,U,38338,999,75431,.7813E-4,.347E-5,0
METOP-B,2012-049A,2026-07-07T12:46:56.284896,14.21444907,.0001115,98.6493,239.6248,302.5643,57.5427,0,U,38771,999,71615,.49929E-4,.66E-6,0
SJ-9A,2012-056A,2026-07-07T12:09:57.674592,14.85518314,.0025276,97.6721,159.7252,186.9789,173.1079,0,U,38860,999,70260,.11083E-3,.91E-5,0
COSMOS 2484 (RODNIK-S 6),2013-001C,2026-07-07T12:15:43.906176,12.42940172,.0025982,82.4998,209.2571,352.6246,7.4448,0,U,39059,999,61108,.34257E-3,.57E-6,0
SARAL,2013-009A,2026-07-07T12:01:39.728928,14.32894390,.0001232,98.5554,14.8114,188.6613,171.4550,0,U,39086,999,69851,.3826E-4,.61E-6,0
STRAND-1,2013-009E,2026-07-07T10:55:21.902304,14.37175624,.0008963,98.3931,8.1913,162.7349,197.4144,0,U,39090,999,69997,.93038E-4,.234E-5,0
BRITE-AUSTRIA,2013-009F,2026-07-07T11:26:33.335808,14.36550284,.0010287,98.4005,7.4112,172.8731,187.2604,0,U,39091,999,69996,.62513E-4,.141E-5,0
GAOFEN-1,2013-018A,2026-07-07T12:41:29.000832,14.76514376,.0016388,97.9082,260.1832,196.1803,163.8886,0,U,39150,999,71124,.9335E-4,.601E-5,0
NEE-01 PEGASO,2013-018B,2026-07-06T21:26:17.199168,14.93765912,.0013985,98.1252,332.6981,99.0383,261.2419,0,U,39151,999,71364,.25827E-3,.268E-4,0
PROBA-V,2013-021A,2026-07-06T22:32:45.985632,14.23602192,.0005423,98.3598,165.5720,78.7537,281.4252,0,U,39159,999,68392,.61957E-4,.1E-5,0
ARIRANG-5 (KOMPSAT-5),2013-042A,2026-07-07T12:25:19.435584,15.04515441,.0005337,97.6218,14.9317,75.9017,284.2802,0,U,39227,999,70691,.94343E-4,.1261E-4,0
GONETS-M 5,2013-048A,2026-07-07T11:32:05.134272,12.42892225,.0017008,82.4850,330.7298,165.8958,194.2600,0,U,39249,999,58140,-.11581E-3,-.6E-7,0
GONETS-M 7,2013-048C,2026-07-07T12:34:07.597056,12.42915234,.0017801,82.4917,333.6358,167.0878,193.0661,0,U,39251,999,58136,.31859E-3,.54E-6,0
FENGYUN 3C,2013-052A,2026-07-07T11:14:31.470720,14.15759549,.0014038,98.4992,161.4131,329.4720,30.5636,0,U,39260,999,66143,.54273E-4,.65E-6,0
CASSIOPE,2013-055A,2026-07-07T11:41:12.759936,15.27023821,.0284916,80.9130,42.0335,354.0396,5.7464,0,U,39265,999,67076,.32921E-3,.30648E-3,-.50902E-6
APRIZESAT 7,2013-066A,2026-07-07T08:18:48.615264,14.91607312,.0036709,97.7718,141.2777,142.5131,217.8658,0,U,39416,999,68423,.11897E-3,.1152E-4,0
ZACUBE-1 (TSHEPISOSAT),2013-066B,2026-07-07T11:16:39.129312,15.01305441,.004351,97.8022,150.9081,179.9834,180.1399,0,U,39417,999,68377,.14444E-3,.1831E-4,0
APRIZESAT 8,2013-066K,2026-07-07T07:40:17.251104,14.87687995,.0044856,97.8227,135.5078,218.1814,141.6223,0,U,39425,999,68266,.83005E-4,.712E-5,0
TRITON-1,2013-066M,2026-07-07T13:18:45.100224,14.81776652,.0089926,97.8224,97.8967,166.9149,193.4428,0,U,39427,999,67710,.14948E-3,.1208E-4,0
